ONEWEB-0115             
1 48042U 21025A   23059.12205678 -.00000018  00000+0 -83893-4 0  9993
2 48042  87.9082 199.7156 0001320  98.0458 262.0821 13.13470201 95414
ONEWEB-0115             
1 48042U 21025A   23059.42676780 -.00000147  00000+0 -43645-3 0  9995
2 48042  87.9081 199.6555 0001359  97.8549 262.2735 13.13469331 95446
ONEWEB-0115             
1 48042U 21025A   23059.88383221 -.00000134  00000+0 -40167-3 0  9992
2 48042  87.9082 199.5652 0001368  98.0727 262.0558 13.13470078 95503
ONEWEB-0115             
1 48042U 21025A   23060.41707497 -.00000204  00000+0 -59435-3 0  9994
2 48042  87.9082 199.4597 0001396  99.2849 260.8438 13.13469868 95585
ONEWEB-0115             
1 48042U 21025A   23060.87414073 -.00000301  00000+0 -86024-3 0  9991
2 48042  87.9084 199.3696 0001403  99.6388 260.4899 13.13469541 95638
ONEWEB-0115             
1 48042U 21025A   23061.78827212 -.00000386  00000+0 -10916-2 0  9994
2 48042  87.9084 199.1888 0001354 100.4268 259.7014 13.13469175 95758
ONEWEB-0115             
1 48042U 21025A   23061.78827212 -.00000386  00000+0 -10916-2 0  9994
2 48042  87.9084 199.1888 0001354 100.4268 259.7014 13.13469175 95769
ONEWEB-0115             
1 48042U 21025A   23062.39769157 -.00000099  00000+0 -30701-3 0  9991
2 48042  87.9088 199.0685 0001363 100.9533 259.1749 13.13470282 95835
ONEWEB-0115             
1 48042U 21025A   23062.85475835 -.00000240  00000+0 -69303-3 0  9997
2 48042  87.9088 198.9780 0001334 101.1308 258.9971 13.13469773 95893
